NORAD_CAT_ID,OBJECT_NAME,OBJECT_TYPE,EPOCH,MEAN_MOTION,ECCENTRICITY,INCLINATION,RA_OF_ASC_NODE,ARG_OF_PERICENTER,MEAN_ANOMALY,BSTAR,MEAN_MOTION_DOT,MEAN_MOTION_DDOT,TLE_LINE0,TLE_LINE1,TLE_LINE2,SEMIMAJOR_AXIS,PERIOD,APOGEE,PERIGEE,DECAYED
55926.0,STARLINK-5921,PAYLOAD,2023-09-09 14:11:15,14.98329124,0.0003005,69.9999,64.3015,268.4611,91.6204,-6.4893e-06,-1.7e-06,0.0,0 STARLINK-5921,1 55926U 23037N   23252.59115504 -.00000170  00000-0 -64893-5 0  9991,2 55926  69.9999  64.3015 0003005 268.4611  91.6204 14.98329124 27357,6950.196,96.107,574.149,569.972,0.0
55926.0,STARLINK-5921,PAYLOAD,2023-09-10 11:01:00,14.98331989,0.0002954,70.0003,62.1134,269.6089,90.4732,-2.315e-05,-3.69e-06,0.0,0 STARLINK-5921,1 55926U 23037N   23253.45903359 -.00000369  00000-0 -23150-4 0  9990,2 55926  70.0003  62.1134 0002954 269.6089  90.4732 14.98331989 27825,6950.187,96.107,574.105,569.999,0.0
55926.0,STARLINK-5921,PAYLOAD,2023-09-10 14:13:16,14.98331615,0.0003008,70.0002,61.7766,269.6222,90.4593,-1.9719e-05,-3.28e-06,0.0,0 STARLINK-5921,1 55926U 23037N   23253.59255331 -.00000328  00000-0 -19719-4 0  9996,2 55926  70.0002  61.7766 0003008 269.6222  90.4593 14.98331615 27506,6950.188,96.107,574.144,569.962,0.0
55926.0,STARLINK-5921,PAYLOAD,2023-09-11 14:15:17,14.98327612,0.0003034,70.0005,59.2517,269.965,90.1161,8.2387e-06,5e-08,0.0,0 STARLINK-5921,1 55926U 23037N   23254.59395459  .00000005  00000-0  82387-5 0  9995,2 55926  70.0005  59.2517 0003034 269.9650  90.1161 14.98327612 27658,6950.2,96.107,574.174,569.957,0.0
55926.0,STARLINK-5921,PAYLOAD,2023-09-11 17:27:33,14.98329531,0.0003044,70.0004,58.915,269.7157,90.3653,1.5521e-05,9.2e-07,0.0,0 STARLINK-5921,1 55926U 23037N   23254.72747323  .00000092  00000-0  15521-4 0  9992,2 55926  70.0004  58.9150 0003044 269.7157  90.3653 14.98329531 28018,6950.194,96.107,574.175,569.944,0.0
55926.0,STARLINK-5921,PAYLOAD,2023-09-12 12:41:10,14.98328994,0.0003082,70.0004,56.8947,269.7227,90.3579,8.8122e-06,1.2e-07,0.0,0 STARLINK-5921,1 55926U 23037N   23255.52859353  .00000012  00000-0  88122-5 0  9998,2 55926  70.0004  56.8947 0003082 269.7227  90.3579 14.98328994 27792,6950.196,96.107,574.203,569.919,0.0
55926.0,STARLINK-5921,PAYLOAD,2023-09-12 17:29:34,14.98330559,0.0003078,70.0004,56.3895,269.3798,90.7009,3.3902e-06,-5.3e-07,0.0,0 STARLINK-5921,1 55926U 23037N   23255.72887268 -.00000053  00000-0  33902-5 0  9998,2 55926  70.0004  56.3895 0003078 269.3798  90.7009 14.98330559 28167,6950.191,96.107,574.195,569.917,0.0
55926.0,STARLINK-5921,PAYLOAD,2023-09-12 20:41:50,14.98333179,0.000307,70.0005,56.053,269.5223,90.5585,3.2231e-05,2.92e-06,0.0,0 STARLINK-5921,1 55926U 23037N   23255.86239004  .00000292  00000-0  32231-4 0  9999,2 55926  70.0005  56.0530 0003070 269.5223  90.5585 14.98333179 27840,6950.183,96.107,574.182,569.914,0.0
55926.0,STARLINK-5921,PAYLOAD,2023-09-13 12:43:10,14.9833443,0.0003081,70.0003,54.3694,269.7679,90.3127,5.36e-05,5.47e-06,0.0,0 STARLINK-5921,1 55926U 23037N   23256.52998705  .00000547  00000-0  53600-4 0  9999,2 55926  70.0003  54.3694 0003081 269.7679  90.3127 14.98334430 27941,6950.179,96.107,574.186,569.903,0.0
55926.0,STARLINK-5921,PAYLOAD,2023-09-13 17:31:34,14.98336749,0.0003086,70.0003,53.8648,269.6616,90.4189,7.2756e-05,7.75e-06,0.0,0 STARLINK-5921,1 55926U 23037N   23256.73026444  .00000775  00000-0  72756-4 0  9990,2 55926  70.0003  53.8648 0003086 269.6616  90.4189 14.98336749 28315,6950.172,96.107,574.182,569.892,0.0
55926.0,STARLINK-5921,PAYLOAD,2023-09-13 20:43:51,14.98330647,0.0003008,70.0003,53.5283,268.4633,91.6181,0.00017481,1.993e-05,0.0,0 STARLINK-5921,1 55926U 23037N   23256.86378526  .00001993  00000-0  17481-3 0  9991,2 55926  70.0003  53.5283 0003008 268.4633  91.6181 14.98330647 27996,6950.191,96.107,574.147,569.965,0.0
55926.0,STARLINK-5921,PAYLOAD,2023-09-14 09:32:56,14.98323676,0.0002905,70.0013,52.1825,272.1409,87.9417,-6.1914e-05,-8.31e-06,0.0,0 STARLINK-5921,1 55926U 23037N   23257.39787538 -.00000831  00000-0 -61914-4 0  9990,2 55926  70.0013  52.1825 0002905 272.1409  87.9417 14.98323676 28414,6950.212,96.107,574.096,570.058,0.0
55926.0,STARLINK-5921,PAYLOAD,2023-09-14 12:45:12,14.98322606,0.0002784,70.0023,51.8469,270.9628,89.1212,-7.4747e-05,-9.84e-06,0.0,0 STARLINK-5921,1 55926U 23037N   23257.53139766 -.00000984  00000-0 -74747-4 0  9997,2 55926  70.0023  51.8469 0002784 270.9628  89.1212 14.98322606 28092,6950.216,96.107,574.016,570.146,0.0
55926.0,STARLINK-5921,PAYLOAD,2023-09-14 20:45:52,14.98342531,0.0002583,70.0013,51.0035,273.5272,86.5592,-0.00048918,-5.927e-05,0.0,0 STARLINK-5921,1 55926U 23037N   23257.86519674 -.00005927  00000-0 -48918-3 0  9995,2 55926  70.0013  51.0035 0002583 273.5272  86.5592 14.98342531 28140,6950.154,96.106,573.814,570.224,0.0
55926.0,STARLINK-5921,PAYLOAD,2023-09-15 12:47:13,14.98331494,0.0003158,70.0004,49.3201,271.4748,88.605,-7.633e-06,-1.84e-06,0.0,0 STARLINK-5921,1 55926U 23037N   23258.53279217 -.00000184  00000-0 -76330-5 0  9997,2 55926  70.0004  49.3201 0003158 271.4748  88.6050 14.98331494 28248,6950.188,96.107,574.248,569.858,0.0
55926.0,STARLINK-5921,PAYLOAD,2023-09-16 09:36:58,14.98324533,0.0003166,70.0006,47.1324,270.5266,89.5531,0.00010024,1.103e-05,0.0,0 STARLINK-5921,1 55926U 23037N   23259.40067290  .00001103  00000-0  10024-3 0  9996,2 55926  70.0006  47.1324 0003166 270.5266  89.5531 14.98324533 28718,6950.21,96.107,574.275,569.874,0.0
55926.0,STARLINK-5921,PAYLOAD,2023-09-16 12:49:14,14.98325272,0.000315,70.0007,46.7958,270.4449,89.6349,0.00010456,1.155e-05,0.0,0 STARLINK-5921,1 55926U 23037N   23259.53419265  .00001155  00000-0  10456-3 0  9999,2 55926  70.0007  46.7958 0003150 270.4449  89.6349 14.98325272 28395,6950.208,96.107,574.262,569.883,0.0
55926.0,STARLINK-5921,PAYLOAD,2023-09-17 12:51:15,14.98330851,0.0003064,70.0012,44.2712,270.187,89.8938,-3.0159e-05,-4.53e-06,0.0,0 STARLINK-5921,1 55926U 23037N   23260.53559396 -.00000453  00000-0 -30159-4 0  9996,2 55926  70.0012  44.2712 0003064 270.1870  89.8938 14.98330851 28543,6950.19,96.107,574.185,569.926,0.0
55926.0,STARLINK-5921,PAYLOAD,2023-09-18 09:40:59,14.98331709,0.0003141,70.0011,42.0823,269.9831,90.0968,1.0256e-05,2.9e-07,0.0,0 STARLINK-5921,1 55926U 23037N   23261.40347044  .00000029  00000-0  10256-4 0  9991,2 55926  70.0011  42.0823 0003141 269.9831  90.0968 14.98331709 29013,6950.188,96.107,574.236,569.87,0.0
55926.0,STARLINK-5921,PAYLOAD,2023-09-18 12:53:15,14.98332352,0.0003139,70.0012,41.7457,269.9242,90.1557,1.6333e-05,1.02e-06,0.0,0 STARLINK-5921,1 55926U 23037N   23261.53698964  .00000102  00000-0  16333-4 0  9999,2 55926  70.0012  41.7457 0003139 269.9242  90.1557 14.98332352 28699,6950.186,96.107,574.232,569.869,0.0
55926.0,STARLINK-5921,PAYLOAD,2023-09-18 19:17:47,14.98337581,0.0003084,70.0013,41.0719,268.5872,91.4934,5.0614e-05,5.11e-06,0.0,0 STARLINK-5921,1 55926U 23037N   23261.80402447  .00000511  00000-0  50614-4 0  9992,2 55926  70.0013  41.0719 0003084 268.5872  91.4934 14.98337581 28734,6950.169,96.107,574.178,569.891,0.0
55926.0,STARLINK-5921,PAYLOAD,2023-09-19 19:19:48,14.98337032,0.0002972,70.0015,38.5473,271.4849,88.5969,5.5528e-05,5.7e-06,0.0,0 STARLINK-5921,1 55926U 23037N   23262.80542182  .00000570  00000-0  55528-4 0  9998,2 55926  70.0015  38.5473 0002972 271.4849  88.5969 14.98337032 29227,6950.171,96.107,574.102,569.971,0.0
55926.0,STARLINK-5921,PAYLOAD,2023-09-20 12:57:18,14.98319122,0.0002664,70.0025,36.6972,263.8472,96.2384,-0.00014362,-1.806e-05,0.0,0 STARLINK-5921,1 55926U 23037N   23263.53979888 -.00001806  00000-0 -14362-3 0  9991,2 55926  70.0025  36.6972 0002664 263.8472  96.2384 14.98319122 29335,6950.227,96.108,573.943,570.24,0.0
55926.0,STARLINK-5921,PAYLOAD,2023-09-20 17:45:43,14.98315962,0.00025,70.0029,36.1928,260.8044,99.2833,-0.00017029,-2.123e-05,0.0,0 STARLINK-5921,1 55926U 23037N   23263.74008376 -.00002123  00000-0 -17029-3 0  9995,2 55926  70.0029  36.1928 0002500 260.8044  99.2833 14.98315962 29022,6950.236,96.108,573.839,570.364,0.0
55926.0,STARLINK-5921,PAYLOAD,2023-09-21 09:47:02,14.98330545,0.0003304,70.0009,34.508,273.2061,86.872,-1.2905e-05,-2.47e-06,0.0,0 STARLINK-5921,1 55926U 23037N   23264.40767104 -.00000247  00000-0 -12905-4 0  9994,2 55926  70.0009  34.5080 0003304 273.2061  86.8720 14.98330545 29460,6950.191,96.107,574.353,569.76,0.0
55926.0,STARLINK-5921,PAYLOAD,2023-09-21 12:59:18,14.98331064,0.0003341,70.0008,34.171,273.8716,86.2061,8.0967e-06,4e-08,0.0,0 STARLINK-5921,1 55926U 23037N   23264.54119016  .00000004  00000-0  80967-5 0  9995,2 55926  70.0008  34.1710 0003341 273.8716  86.2061 14.98331064 29143,6950.19,96.107,574.377,569.733,0.0
55926.0,STARLINK-5921,PAYLOAD,2023-09-21 16:11:34,14.98333733,0.0002977,70.0018,33.8357,264.9311,95.1508,5.0606e-05,5.11e-06,0.0,0 STARLINK-5921,1 55926U 23037N   23264.67470685  .00000511  00000-0  50606-4 0  9990,2 55926  70.0018  33.8357 0002977 264.9311  95.1508 14.98333733 29165,6950.181,96.107,574.115,569.977,0.0
55926.0,STARLINK-5921,PAYLOAD,2023-09-22 09:49:03,14.98325646,0.0003133,70.0018,31.9841,267.3477,92.7323,0.00015293,1.732e-05,0.0,0 STARLINK-5921,1 55926U 23037N   23265.40906806  .00001732  00000-0  15293-3 0  9999,2 55926  70.0018  31.9841 0003133 267.3477  92.7323 14.98325646 29619,6950.206,96.107,574.249,569.894,0.0
55926.0,STARLINK-5921,PAYLOAD,2023-09-22 13:01:19,14.98324975,0.0003169,70.0017,31.6475,267.2729,92.8067,0.0001356,1.525e-05,0.0,0 STARLINK-5921,1 55926U 23037N   23265.54258922  .00001525  00000-0  13560-3 0  9998,2 55926  70.0017  31.6475 0003169 267.2729  92.8067 14.98324975 29290,6950.208,96.107,574.276,569.871,0.0
55926.0,STARLINK-5921,PAYLOAD,2023-09-22 17:49:43,14.98329478,0.0003112,70.0019,31.1427,266.4016,93.6787,0.0001771,2.021e-05,0.0,0 STARLINK-5921,1 55926U 23037N   23265.74286544  .00002021  00000-0  17710-3 0  9994,2 55926  70.0019  31.1427 0003112 266.4016  93.6787 14.98329478 29327,6950.195,96.107,574.222,569.897,0.0
